{
  "norad_id": 65872,
  "name": "STARLINK-34108",
  "history": [
    {
      "epoch": "2026-04-16T09:55:03.955008Z",
      "apogee_km": 475.96545916986906,
      "perigee_km": 474.4686866403463,
      "latitude_deg": 1.662292108160788e-05,
      "longitude_deg": 125.4538257182983,
      "height_km": 476.139042691994,
      "semi_major_axis_km": 6853.354072905107,
      "eccentricity": 0.0001092,
      "inclination_deg": 53.1597,
      "raan_deg": 118.7816,
      "arg_perigee_deg": 91.8138,
      "mean_anomaly_deg": 268.2988,
      "mean_motion_rev_day": 15.30199329
    },
    {
      "epoch": "2026-04-17T17:16:08.065920Z",
      "apogee_km": 476.37568642357473,
      "perigee_km": 474.06418619609576,
      "latitude_deg": 2.9735271609499105e-05,
      "longitude_deg": 7.829062982142184,
      "height_km": 475.9055749075138,
      "semi_major_axis_km": 6853.356936309835,
      "eccentricity": 0.00016864,
      "inclination_deg": 53.1596,
      "raan_deg": 112.7115,
      "arg_perigee_deg": 79.4379,
      "mean_anomaly_deg": 280.6812,
      "mean_motion_rev_day": 15.3019837
    },
    {
      "epoch": "2026-04-18T16:46:55.486848Z",
      "apogee_km": 475.67493112385546,
      "perigee_km": 474.65515977949326,
      "latitude_deg": 2.7077407257183514e-05,
      "longitude_deg": 9.615922440607424,
      "height_km": 476.0215919543562,
      "semi_major_axis_km": 6853.3020454516745,
      "eccentricity": 7.44e-05,
      "inclination_deg": 53.1586,
      "raan_deg": 108.1616,
      "arg_perigee_deg": 85.2653,
      "mean_anomaly_deg": 274.8433,
      "mean_motion_rev_day": 15.30216754
    },
    {
      "epoch": "2026-04-19T16:17:43.635264Z",
      "apogee_km": 475.8707968209792,
      "perigee_km": 474.5330250655634,
      "latitude_deg": 1.919475591468507e-05,
      "longitude_deg": 11.400437331886785,
      "height_km": 475.9079731711917,
      "semi_major_axis_km": 6853.338910943271,
      "eccentricity": 9.76e-05,
      "inclination_deg": 53.1571,
      "raan_deg": 103.6124,
      "arg_perigee_deg": 73.305,
      "mean_anomaly_deg": 286.8058,
      "mean_motion_rev_day": 15.30204407
    },
    {
      "epoch": "2026-04-20T06:24:12.658752Z",
      "apogee_km": 476.05117539762887,
      "perigee_km": 474.37621648754066,
      "latitude_deg": 3.9727463151169754e-05,
      "longitude_deg": 156.4665229155312,
      "height_km": 475.74529386388673,
      "semi_major_axis_km": 6853.350695942584,
      "eccentricity": 0.0001222,
      "inclination_deg": 53.1574,
      "raan_deg": 100.8788,
      "arg_perigee_deg": 64.0529,
      "mean_anomaly_deg": 296.0598,
      "mean_motion_rev_day": 15.3020046
    },
    {
      "epoch": "2026-04-21T05:55:00.679296Z",
      "apogee_km": 476.3309174790029,
      "perigee_km": 474.04533354964406,
      "latitude_deg": 2.9340728372675484e-05,
      "longitude_deg": 158.25446878634216,
      "height_km": 476.1351159523163,
      "semi_major_axis_km": 6853.325125514323,
      "eccentricity": 0.00016675,
      "inclination_deg": 53.1597,
      "raan_deg": 96.3325,
      "arg_perigee_deg": 92.4827,
      "mean_anomaly_deg": 267.6365,
      "mean_motion_rev_day": 15.30209024
    },
    {
      "epoch": "2026-04-22T00:43:38.848800Z",
      "apogee_km": 475.79136316034874,
      "perigee_km": 474.5643456688149,
      "latitude_deg": 5.0680109435806875e-05,
      "longitude_deg": -128.32078095600554,
      "height_km": 475.87215852792576,
      "semi_major_axis_km": 6853.3148544145815,
      "eccentricity": 8.952e-05,
      "inclination_deg": 53.1559,
      "raan_deg": 92.6888,
      "arg_perigee_deg": 70.5882,
      "mean_anomaly_deg": 289.5216,
      "mean_motion_rev_day": 15.30212464
    },
    {
      "epoch": "2026-04-24T04:27:24.296832Z",
      "apogee_km": 475.74865629785654,
      "perigee_km": 474.50684472506236,
      "latitude_deg": -1.2021578937777054e-06,
      "longitude_deg": 163.60196278626975,
      "height_km": 476.08981297394047,
      "semi_major_axis_km": 6853.264750511459,
      "eccentricity": 9.06e-05,
      "inclination_deg": 53.1593,
      "raan_deg": 82.6754,
      "arg_perigee_deg": 95.8751,
      "mean_anomaly_deg": 264.2353,
      "mean_motion_rev_day": 15.30229245
    },
    {
      "epoch": "2026-04-25T14:56:34.776672Z",
      "apogee_km": 476.6086063330022,
      "perigee_km": 473.76858820549387,
      "latitude_deg": -6.380405621142962e-05,
      "longitude_deg": -1.7791503600614498,
      "height_km": 476.1635608369653,
      "semi_major_axis_km": 6853.325597269248,
      "eccentricity": 0.0002072,
      "inclination_deg": 53.158,
      "raan_deg": 76.0043,
      "arg_perigee_deg": 93.1581,
      "mean_anomaly_deg": 266.9656,
      "mean_motion_rev_day": 15.30208866
    },
    {
      "epoch": "2026-04-26T20:43:35.535936Z",
      "apogee_km": 476.29960405786005,
      "perigee_km": 474.07693360667236,
      "latitude_deg": 3.146885760028322e-05,
      "longitude_deg": -95.51890921557775,
      "height_km": 476.2480568867487,
      "semi_major_axis_km": 6853.325268832266,
      "eccentricity": 0.00016216,
      "inclination_deg": 53.1606,
      "raan_deg": 70.2408,
      "arg_perigee_deg": 98.3881,
      "mean_anomaly_deg": 261.7304,
      "mean_motion_rev_day": 15.30208976
    },
    {
      "epoch": "2026-04-27T13:58:09.939072Z",
      "apogee_km": 476.41642527705153,
      "perigee_km": 473.8998952941947,
      "latitude_deg": -2.7623205594095405e-05,
      "longitude_deg": 1.7890605927020784,
      "height_km": 476.37396502531317,
      "semi_major_axis_km": 6853.295160285623,
      "eccentricity": 0.0001836,
      "inclination_deg": 53.1593,
      "raan_deg": 66.9003,
      "arg_perigee_deg": 104.6631,
      "mean_anomaly_deg": 255.4573,
      "mean_motion_rev_day": 15.3021906
    },
    {
      "epoch": "2026-04-28T13:28:59.276352Z",
      "apogee_km": 476.2578233484619,
      "perigee_km": 474.4526134981288,
      "latitude_deg": -1.7419405183577264e-06,
      "longitude_deg": 3.5687350750780795,
      "height_km": 476.45094277020775,
      "semi_major_axis_km": 6853.492218423295,
      "eccentricity": 0.0001317,
      "inclination_deg": 53.161,
      "raan_deg": 62.3512,
      "arg_perigee_deg": 102.6447,
      "mean_anomaly_deg": 257.4701,
      "mean_motion_rev_day": 15.30153063
    },
    {
      "epoch": "2026-04-29T19:15:59.454144Z",
      "apogee_km": 476.62843102926126,
      "perigee_km": 473.60340519120746,
      "latitude_deg": -3.7129435972074356e-05,
      "longitude_deg": -90.16709163987628,
      "height_km": 475.95788027069443,
      "semi_major_axis_km": 6853.252918110234,
      "eccentricity": 0.0002207,
      "inclination_deg": 53.1603,
      "raan_deg": 56.5893,
      "arg_perigee_deg": 87.9228,
      "mean_anomaly_deg": 272.2025,
      "mean_motion_rev_day": 15.30233208
    }
  ]
}